GOES 1 (SMS-C) [-]      
1 08366U 75100A   22330.50808000 -.00000195  00000+0  00000+0 0  9991
2 08366   7.8864 293.7048 0003007 290.5790 299.2302  1.00246984172183
GOES 2 [-]              
1 10061U 77048A   22330.50672932 -.00000075  00000+0  00000+0 0  9999
2 10061   9.4860 305.3983 0011563  21.0243 194.6042  0.99394798110608
GOES 3 [-]              
1 10953U 78062A   22329.79739068 -.00000230  00000+0  00000+0 0  9992
2 10953   9.8294 310.0084 0001499 188.0451 328.7843  0.99360520115622
GOES 4 [-]              
1 11964U 80074A   22329.88212638 -.00000154  00000+0  00000+0 0  9995
2 11964  10.7998 313.8348 0031260  77.1954  98.1234  0.99229043114542
GOES 5 [-]              
1 12472U 81049A   22330.03055812 -.00000278  00000+0  00000+0 0  9998
2 12472  11.6815 325.3091 0001725 235.8091 168.2741  1.00275055109932
GOES 6 [-]              
1 14050U 83041A   22330.44433965 -.00000254  00000+0  00000+0 0  9994
2 14050  12.2620 330.6435 0003427 171.3138   7.5829  1.00258982203033
GOES 7 [-]              
1 17561U 87022A   22329.21918272  .00000103  00000+0  00000+0 0  9991
2 17561  14.1058 347.2413 0003577  66.1542 120.1134  0.99899518113972
GOES 8 [-]              
1 23051U 94022A   22329.05609214 -.00000127  00000+0  00000+0 0  9992
2 23051  13.3140  23.0576 0003289  37.4393 315.4371  0.98904524111265
GOES 9 [-]              
1 23581U 95025A   22329.65746641 -.00000240  00000+0  00000+0 0  9992
2 23581  12.8093  23.4387 0005910 128.9434 282.2519  0.98801458 99928
GOES 10 [-]             
1 24786U 97019A   22326.92202325 -.00000136  00000+0  00000+0 0  9992
2 24786  11.5996  29.6862 0027682 204.3532 165.1448  0.99126138 93164
GOES 11 [-]             
1 26352U 00022A   22329.61413174 -.00000192  00000+0  00000+0 0  9998
2 26352   9.0251  58.0269 0002806 184.7609 216.2041  0.99045806 39603
GOES 12 [-]             
1 26871U 01031A   22329.60530025 -.00000292  00000+0  00000+0 0  9990
2 26871   9.8069  47.1161 0003957 301.4034  75.4126  0.99139832 77886
EWS-G1 (GOES 13) [+]    
1 29155U 06018A   22329.84371880  .00000053  00000+0  00000+0 0  9990
2 29155   0.9841  93.8824 0006508 142.1687 193.7708  1.00271594 30342
GOES 14 [B]             
1 35491U 09033A   22330.55859131 -.00000082  00000+0  00000+0 0  9993
2 35491   0.2095 263.2705 0018056 318.7033 300.4092  1.00271349 49132
GOES 15 [B]             
1 36411U 10008A   22330.44044652  .00000066  00000+0  00000+0 0  9993
2 36411   0.1677 282.0177 0003263 274.0116 259.8234  1.00277937 46638
GOES 16 [+]             
1 41866U 16071A   22330.15607472 -.00000234  00000+0  00000+0 0  9990
2 41866   0.0553 260.6741 0000557  27.0849 118.3207  1.00269824 22089
GOES 17 [+]             
1 43226U 18022A   22330.47735144  .00000110  00000+0  00000+0 0  9995
2 43226   0.0075  64.9027 0000280 168.4179 226.5996  1.00272224 17417
GOES 18 [+]             
1 51850U 22021A   22330.57708483  .00000108  00000+0  00000+0 0  9995
2 51850   0.0062 222.0850 0001670  14.5953 259.6470  1.00272170  2789
